OBJECT_NAME,OBJECT_ID,EPOCH,MEAN_MOTION,ECCENTRICITY,INCLINATION,RA_OF_ASC_NODE,ARG_OF_PERICENTER,MEAN_ANOMALY,EPHEMERIS_TYPE,CLASSIFICATION_TYPE,NORAD_CAT_ID,ELEMENT_SET_NO,REV_AT_EPOCH,BSTAR,MEAN_MOTION_DOT,MEAN_MOTION_DDOT
MONITOR-3 (RS58S),2023-091Q,2026-06-11T23:00:25.581024,15.27735150,.0013098,97.5091,226.3661,116.8255,243.4325,0,U,57180,999,16349,.35292704E-3,.9513E-4,0
MONITOR-4 (RS57S),2023-091S,2026-06-11T22:30:41.474592,15.27824419,.00130992,97.5085,226.3165,117.2390,243.0185,0,U,57182,999,16349,.3377722E-3,.9126E-4,0
MONITOR-2 (RS39S),2023-091U,2026-06-11T21:51:12.650976,15.18860563,.00125688,97.5079,221.2272,127.1985,233.0398,0,U,57184,999,16315,.22881417E-3,.4709E-4,0
SVYATOBOR 1 (RS60S),2023-091X,2026-06-11T22:43:05.267136,15.26524550,.00109119,97.5097,226.7345,110.0732,250.1682,0,U,57187,999,16351,.31792833E-3,.8245E-4,0
HORS 1,2023-091Y,2026-06-11T22:22:47.032320,15.26628085,.00103782,97.5075,226.4835,109.8091,250.4268,0,U,57188,999,16351,.32648859E-3,.8495E-4,0
VIZARD-METEO (RS38S),2023-091Z,2026-06-11T22:27:28.229760,15.35857512,.00085616,97.5099,232.3157,93.5503,266.6720,0,U,57189,999,16388,.45373747E-3,.15782E-3,0
SITRO-AIS 6 (CHIRKIN),2023-091AC,2026-06-11T22:24:23.429664,15.25833243,.00130707,97.5076,225.9299,122.6424,237.6077,0,U,57192,999,16348,.36302093E-3,.9238E-4,0
SITRO-AIS 8 (ANOKHIN),2023-091AD,2026-06-11T22:15:33.124608,15.31990708,.00118607,97.5066,228.3444,116.1094,244.1370,0,U,57193,999,16364,.44768452E-3,.13787E-3,0
SITRO-AIS 7 (FARTUSHNIY),2023-091AE,2026-06-11T22:27:23.012928,15.25523108,.00129096,97.5074,225.7597,123.5939,236.6533,0,U,57194,999,16347,.3633736E-3,.9161E-4,0
AVION KALUGA 650,2023-091AF,2026-06-11T21:31:23.745504,15.20295736,.001176,97.5097,222.4945,125.2415,234.9923,0,U,57195,999,16322,.24096249E-3,.5174E-4,0
HORS 2,2023-091AG,2026-06-11T22:31:12.726336,15.31758212,.00094989,97.5097,229.8964,103.4350,256.7950,0,U,57196,999,16372,.43764232E-3,.13367E-3,0
A-SEANSAT-PG1,2023-091AH,2026-06-11T22:23:02.127264,15.36778035,.00085043,97.5089,232.4021,100.6268,259.5934,0,U,57197,999,16390,.4862474E-3,.17429E-3,0
SITRO-AIS 10 (BURDAEV),2023-091AK,2026-06-11T21:59:03.166368,15.38408681,.0007799,97.5089,233.3325,95.8949,264.3185,0,U,57199,999,16395,.4819022E-3,.18208E-3,0
SITRO-AIS 9 (SHCHUKIN),2023-091AM,2026-06-11T22:34:40.038816,15.37927684,.00080527,97.5087,233.0919,95.8724,264.3439,0,U,57201,999,16394,.4875331E-3,.18137E-3,0
UTMN 2 (RS27S),2023-091AP,2026-06-11T21:37:08.876352,15.31920910,.00094692,97.5096,230.0487,99.3925,260.8387,0,U,57203,999,16373,.38308276E-3,.11748E-3,0
SITRO-AIS 12 (SMIRENNIY),2023-091AQ,2026-06-11T22:22:35.427936,15.38216181,.00076205,97.5100,233.5471,91.0778,269.1340,0,U,57204,999,16396,.47900282E-3,.17984E-3,0
SITRO-AIS 11 (SHEFFER),2023-091AU,2026-06-11T22:43:59.471040,15.38638919,.00075331,97.5099,233.8057,90.8154,269.3954,0,U,57208,999,16398,.48097832E-3,.18309E-3,0
H2SAT (HEINRICH HERTZ),2023-093A,2026-06-11T14:57:36.957888,1.00270179,.00006542,0.0589,109.4090,54.0522,321.6084,0,U,57213,999,1086,0,.19E-6,0
KUZGTU 1 (RS47S),2023-091AV,2026-06-11T22:22:16.979808,15.29740183,.00123479,97.5073,227.3588,114.2109,246.0423,0,U,57217,999,16357,.40382093E-3,.11588E-3,0
QIANKUN-1,2023-103B,2026-06-10T15:16:35.632128,16.07641077,.00279364,96.1537,206.9401,148.1317,212.1666,0,U,57422,999,16624,.19494773E-4,.15936E-3,.1768719E-5
FENGYUN 3F,2023-111A,2026-06-11T21:37:01.873632,14.19938181,.00015935,98.6841,233.0077,97.1231,263.0127,0,U,57490,999,14811,.32403754E-4,.25E-6,0
HJ-2F,2023-116A,2026-06-11T23:51:08.265024,15.22246500,.00102766,97.3841,168.3028,67.4415,292.7908,0,U,57519,999,15796,.29187749E-3,.6653E-4,0
XRISM,2023-137A,2026-06-11T21:51:49.509216,15.12420473,.00079469,31.0029,33.7769,270.9614,89.0115,0,U,57800,999,15206,.24090571E-3,.439E-4,0
METEOR-M2 4,2024-039A,2026-06-11T23:28:29.675136,14.22429069,.00069832,98.7008,122.3417,175.7094,184.4145,0,U,59051,999,11852,.23139164E-4,.8E-7,0
GRBBETA,2024-128C,2026-06-11T18:40:01.010208,15.06604687,.00413583,61.9897,235.2445,133.4824,226.9720,0,U,60237,999,10545,.22205888E-3,.3149E-4,0
TRANSPORTER-11 OBJECT A,2024-149A,2026-06-11T19:12:49.984128,15.32819437,.00023109,97.3735,242.7473,215.8400,144.2688,0,U,60468,999,10123,.24639361E-3,.7732E-4,0
WARATAH SEED-1,2024-149B,2026-06-11T21:34:32.462112,15.35812544,.00010566,97.3693,243.4689,193.3965,166.7250,0,U,60469,999,10130,.351595E-3,.12176E-3,0
PHISAT 2,2024-149C,2026-06-11T18:04:44.046912,15.30970025,.00005292,97.3759,241.9997,182.1908,177.9331,0,U,60470,999,10116,.21729696E-3,.6425E-4,0
LEMUR-2-TOMATOKECHUP,2024-149D,2026-06-11T23:03:24.970752,15.35920487,.00009418,97.3800,244.9943,187.6521,172.4709,0,U,60471,999,10136,.29131382E-3,.10107E-3,0
